[{"OBJECT_NAME":"STARLINK-5209","OBJECT_ID":"2022-136L","EPOCH":"2026-03-09T20:21:09.214848","MEAN_MOTION":15.08857145,"ECCENTRICITY":0.00014375,"INCLINATION":53.2181,"RA_OF_ASC_NODE":308.0224,"ARG_OF_PERICENTER":87.1231,"MEAN_ANOMALY":272.9926,"EPHEMERIS_TYPE":0,"CLASSIFICATION_TYPE":"U","NORAD_CAT_ID":54061,"ELEMENT_SET_NO":999,"REV_AT_EPOCH":18736,"BSTAR":0.00012387334,"MEAN_MOTION_DOT":1.685e-5,"MEAN_MOTION_DDOT":0},{"OBJECT_NAME":"LEMUR-2-KREMPEL-BRO2","OBJECT_ID":"2025-061C","EPOCH":"2026-03-09T20:43:52.091904","MEAN_MOTION":15.13192951,"ECCENTRICITY":0.00179248,"INCLINATION":97.5616,"RA_OF_ASC_NODE":45.5365,"ARG_OF_PERICENTER":236.8576,"MEAN_ANOMALY":123.0936,"EPHEMERIS_TYPE":0,"CLASSIFICATION_TYPE":"U","NORAD_CAT_ID":63353,"ELEMENT_SET_NO":999,"REV_AT_EPOCH":5258,"BSTAR":0.00044346981,"MEAN_MOTION_DOT":7.837e-5,"MEAN_MOTION_DDOT":0}]
